[{"OBJECT_NAME":"IRIDIUM 115","OBJECT_ID":"2017-039D","EPOCH":"2026-03-09T21:44:50.536608","MEAN_MOTION":14.43281411,"ECCENTRICITY":0.00018282,"INCLINATION":86.4554,"RA_OF_ASC_NODE":3.5706,"ARG_OF_PERICENTER":89.0887,"MEAN_ANOMALY":271.0524,"EPHEMERIS_TYPE":0,"CLASSIFICATION_TYPE":"U","NORAD_CAT_ID":42806,"ELEMENT_SET_NO":999,"REV_AT_EPOCH":45994,"BSTAR":0.00015631105,"MEAN_MOTION_DOT":5.46e-6,"MEAN_MOTION_DDOT":0},{"OBJECT_NAME":"FENGYUN 1C DEB","OBJECT_ID":"1999-025CBQ","EPOCH":"2026-03-08T12:48:44.066304","MEAN_MOTION":13.99713664,"ECCENTRICITY":0.02110303,"INCLINATION":98.154,"RA_OF_ASC_NODE":272.3598,"ARG_OF_PERICENTER":79.7346,"MEAN_ANOMALY":282.7542,"EPHEMERIS_TYPE":0,"CLASSIFICATION_TYPE":"U","NORAD_CAT_ID":31658,"ELEMENT_SET_NO":999,"REV_AT_EPOCH":71016,"BSTAR":0.0028198321,"MEAN_MOTION_DOT":4.968e-5,"MEAN_MOTION_DDOT":0}]
